{
 "type": "FeatureCollection",
 "features": [
  {
   "type": "Feature",
   "properties": {
    "name": "Acacia Woodland"
   },
   "geometry": {
    "type": "MultiPolygon",
    "coordinates": [
     [
      [
       [
        36.720177,
        -2.45292
       ],
       [
        36.6,
        -2.41
       ],
       [
        36.4,
        -2.28
       ],
       [
        36.25,
        -2.19
       ],
       [
        36.25,
        -2.12
       ],
       [
        36.786594,
        -2.139513
       ],
       [
        36.786544,
        -2.140803
       ],
       [
        36.793319,
        -2.255841
       ],
       [
        36.793212,
        -2.255898
       ],
       [
        36.789121,
        -2.259265
       ],
       [
        36.785762,
        -2.26337
       ],
       [
        36.783263,
        -2.268055
       ],
       [
        36.781721,
        -2.27314
       ],
       [
        36.781195,
        -2.27843
       ],
       [
        36.781705,
        -2.283722
       ],
       [
        36.783231,
        -2.288812
       ],
       [
        36.785716,
        -2.293505
       ],
       [
        36.787538,
        -2.295745
       ],
       [
        36.720177,
        -2.45292
       ]
      ]
     ]
    ]
   }
  },
  {
   "type": "Feature",
   "properties": {
    "name": "Dry Lakebed"
   },
   "geometry": {
    "type": "MultiPolygon",
    "coordinates": [
     [
      [
       [
        37.12593,
        -2.409884
       ],
       [
        37.254459,
        -2.456622
       ],
       [
        37.16457,
        -2.726291
       ],
       [
        37.154041,
        -2.720414
       ],
       [
        36.939373,
        -2.600638
       ],
       [
        36.895631,
        -2.576211
       ],
       [
        37.12593,
        -2.409884
       ]
      ]
     ]
    ]
   }
  },
  {
   "type": "Feature",
   "properties": {
    "name": "Eastern Ridges"
   },
   "geometry": {
    "type": "MultiPolygon",
    "coordinates": [
     [
      [
       [
        37.348346,
        -2.429143
       ],
       [
        37.486712,
        -2.166247
       ],
       [
        37.55,
        -2.2
       ],
       [
        37.648876,
        -2.269795
       ],
       [
        37.648574,
        -2.269887
       ],
       [
        37.646058,
        -2.270867
       ],
       [
        37.643716,
        -2.272213
       ],
       [
        37.638718,
        -2.275611
       ],
       [
        37.636489,
        -2.277423
       ],
       [
        37.635457,
        -2.277034
       ],
       [
        37.631849,
        -2.276466
       ],
       [
        37.6282,
        -2.276643
       ],
       [
        37.624663,
        -2.277558
       ],
       [
        37.621877,
        -2.278929
       ],
       [
        37.620642,
        -2.278535
       ],
       [
        37.617226,
        -2.278134
       ],
       [
        37.613795,
        -2.278394
       ],
       [
        37.608928,
        -2.279241
       ],
       [
        37.605628,
        -2.280147
       ],
       [
        37.602558,
        -2.281666
       ],
       [
        37.59983,
        -2.283741
       ],
       [
        37.598788,
        -2.284906
       ],
       [
        37.597182,
        -2.285906
       ],
       [
        37.594715,
        -2.288173
       ],
       [
        37.592707,
        -2.29086
       ],
       [
        37.59068,
        -2.294176
       ],
       [
        37.588368,
        -2.295226
       ],
       [
        37.585507,
        -2.297281
       ],
       [
        37.583098,
        -2.299856
       ],
       [
        37.581233,
        -2.302853
       ],
       [
        37.579984,
        -2.306158
       ],
       [
        37.579397,
        -2.309644
       ],
       [
        37.579496,
        -2.313178
       ],
       [
        37.580276,
        -2.316626
       ],
       [
        37.581708,
        -2.319855
       ],
       [
        37.583738,
        -2.322742
       ],
       [
        37.729032,
        -2.491606
       ],
       [
        37.74,
        -2.7
       ],
       [
        37.636667,
        -2.786111
       ],
       [
        37.348346,
        -2.429143
       ]
      ]
     ]
    ]
   }
  },
  {
   "type": "Feature",
   "properties": {
    "name": "Open Plains"
   },
   "geometry": {
    "type": "MultiPolygon",
    "coordinates": [
     [
      [
       [
        36.789062,
        -2.29762
       ],
       [
        36.793143,
        -2.300999
       ],
       [
        36.7978,
        -2.303513
       ],
       [
        36.802856,
        -2.305064
       ],
       [
        36.808115,
        -2.305593
       ],
       [
        36.813376,
        -2.30508
       ],
       [
        36.818436,
        -2.303545
       ],
       [
        36.823101,
        -2.301045
       ],
       [
        36.827192,
        -2.297679
       ],
       [
        36.830552,
        -2.293574
       ],
       [
        36.83305,
        -2.288889
       ],
       [
        36.834592,
        -2.283803
       ],
       [
        36.835118,
        -2.278513
       ],
       [
        36.834608,
        -2.273221
       ],
       [
        36.833081,
        -2.26813
       ],
       [
        36.830597,
        -2.263438
       ],
       [
        36.82725,
        -2.259323
       ],
       [
        36.823169,
        -2.255944
       ],
       [
        36.820241,
        -2.254363
       ],
       [
        36.818432,
        -2.223659
       ],
       [
        36.813456,
        -2.139197
       ],
       [
        36.813042,
        -2.136572
       ],
       [
        36.812126,
        -2.134078
       ],
       [
        36.810745,
        -2.131812
       ],
       [
        36.809226,
        -2.130159
       ],
       [
        36.9,
        -2.033333
       ],
       [
        36.9,
        -2.033333
       ],
       [
        37.12593,
        -2.409884
       ],
       [
        36.895631,
        -2.576211
       ],
       [
        36.832561,
        -2.540991
       ],
       [
        36.74,
        -2.46
       ],
       [
        36.720177,
        -2.45292
       ],
       [
        36.787538,
        -2.295745
       ],
       [
        36.789062,
        -2.29762
       ]
      ]
     ]
    ]
   }
  },
  {
   "type": "Feature",
   "properties": {
    "name": "Sand River"
   },
   "geometry": {
    "type": "MultiPolygon",
    "coordinates": [
     [
      [
       [
        37.348346,
        -2.429143
       ],
       [
        37.254459,
        -2.456622
       ],
       [
        37.12593,
        -2.409884
       ],
       [
        36.9,
        -2.033333
       ],
       [
        36.9,
        -2.033333
       ],
       [
        36.95,
        -1.98
       ],
       [
        37.256057,
        -1.98
       ],
       [
        37.258564,
        -1.983489
       ],
       [
        37.26072,
        -1.99523
       ],
       [
        37.261784,
        -1.998854
       ],
       [
        37.263574,
        -2.002177
       ],
       [
        37.265546,
        -2.005069
       ],
       [
        37.268113,
        -2.008069
       ],
       [
        37.271268,
        -2.010434
       ],
       [
        37.274859,
        -2.012053
       ],
       [
        37.278793,
        -2.013328
       ],
       [
        37.288805,
        -2.020521
       ],
       [
        37.29183,
        -2.022275
       ],
       [
        37.295137,
        -2.023408
       ],
       [
        37.298598,
        -2.023877
       ],
       [
        37.302084,
        -2.023663
       ],
       [
        37.304157,
        -2.023118
       ],
       [
        37.3051,
        -2.023809
       ],
       [
        37.308583,
        -2.025362
       ],
       [
        37.312313,
        -2.026143
       ],
       [
        37.334543,
        -2.028361
       ],
       [
        37.4,
        -2.12
       ],
       [
        37.486712,
        -2.166247
       ],
       [
        37.348346,
        -2.429143
       ]
      ]
     ]
    ]
   }
  },
  {
   "type": "Feature",
   "properties": {
    "name": "Seasonal Swamps"
   },
   "geometry": {
    "type": "MultiPolygon",
    "coordinates": [
     [
      [
       [
        37.254459,
        -2.456622
       ],
       [
        37.348346,
        -2.429143
       ],
       [
        37.636667,
        -2.786111
       ],
       [
        37.62,
        -2.8
       ],
       [
        37.467412,
        -2.8
       ],
       [
        37.467411,
        -2.740057
       ],
       [
        37.468881,
        -2.739269
       ],
       [
        37.472974,
        -2.7359
       ],
       [
        37.476335,
        -2.731793
       ],
       [
        37.478834,
        -2.727105
       ],
       [
        37.480376,
        -2.722017
       ],
       [
        37.480901,
        -2.716725
       ],
       [
        37.480389,
        -2.711431
       ],
       [
        37.47886,
        -2.70634
       ],
       [
        37.476373,
        -2.701646
       ],
       [
        37.473022,
        -2.69753
       ],
       [
        37.468938,
        -2.694151
       ],
       [
        37.464277,
        -2.691638
       ],
       [
        37.459218,
        -2.690087
       ],
       [
        37.453955,
        -2.689559
       ],
       [
        37.44869,
        -2.690074
       ],
       [
        37.443627,
        -2.691611
       ],
       [
        37.43896,
        -2.694112
       ],
       [
        37.434867,
        -2.697481
       ],
       [
        37.431506,
        -2.701588
       ],
       [
        37.429007,
        -2.706276
       ],
       [
        37.427465,
        -2.711363
       ],
       [
        37.42694,
        -2.716656
       ],
       [
        37.427452,
        -2.721949
       ],
       [
        37.42898,
        -2.727041
       ],
       [
        37.431467,
        -2.731735
       ],
       [
        37.434818,
        -2.735851
       ],
       [
        37.438902,
        -2.73923
       ],
       [
        37.44043,
        -2.740054
       ],
       [
        37.440429,
        -2.8
       ],
       [
        37.440688,
        -2.802646
       ],
       [
        37.441456,
        -2.805191
       ],
       [
        37.442703,
        -2.807536
       ],
       [
        37.44438,
        -2.809592
       ],
       [
        37.446425,
        -2.811279
       ],
       [
        37.448757,
        -2.812533
       ],
       [
        37.45,
        -2.812912
       ],
       [
        37.45,
        -2.885631
       ],
       [
        37.445448,
        -2.883089
       ],
       [
        37.368834,
        -2.840305
       ],
       [
        37.16457,
        -2.726291
       ],
       [
        37.254459,
        -2.456622
       ]
      ]
     ]
    ]
   }
  }
 ]
}
