{
 "type": "FeatureCollection",
 "features": [
  {
   "type": "Feature",
   "properties": {
    "name": "Kilimani Game Reserve"
   },
   "geometry": {
    "type": "MultiPolygon",
    "coordinates": [
     [
      [
       [
        36.865446,
        -2.73674
       ],
       [
        36.865559,
        -2.736803
       ],
       [
        37.071825,
        -2.851903
       ],
       [
        37.08,
        -2.95
       ],
       [
        37.06,
        -3.06
       ],
       [
        37.02,
        -3.11
       ],
       [
        37,
        -3.17
       ],
       [
        37,
        -3.14
       ],
       [
        36.853648,
        -3.14
       ],
       [
        36.851972,
        -3.137939
       ],
       [
        36.830203,
        -3.119905
       ],
       [
        36.805353,
        -3.106486
       ],
       [
        36.778377,
        -3.098199
       ],
       [
        36.750312,
        -3.09536
       ],
       [
        36.722236,
        -3.098079
       ],
       [
        36.695227,
        -3.106251
       ],
       [
        36.670323,
        -3.119561
       ],
       [
        36.64848,
        -3.137499
       ],
       [
        36.646429,
        -3.14
       ],
       [
        36.55,
        -3.14
       ],
       [
        36.413308,
        -3.158226
       ],
       [
        36.413069,
        -3.156654
       ],
       [
        36.412169,
        -3.154156
       ],
       [
        36.410801,
        -3.151882
       ],
       [
        36.290836,
        -2.990605
       ],
       [
        36.290957,
        -2.99038
       ],
       [
        36.292504,
        -2.985298
       ],
       [
        36.293035,
        -2.98001
       ],
       [
        36.29253,
        -2.97472
       ],
       [
        36.291008,
        -2.96963
       ],
       [
        36.288527,
        -2.964937
       ],
       [
        36.285184,
        -2.96082
       ],
       [
        36.281106,
        -2.957439
       ],
       [
        36.27645,
        -2.954922
       ],
       [
        36.271395,
        -2.953367
       ],
       [
        36.266136,
        -2.952833
       ],
       [
        36.260874,
        -2.953341
       ],
       [
        36.255812,
        -2.954871
       ],
       [
        36.251144,
        -2.957365
       ],
       [
        36.247049,
        -2.960726
       ],
       [
        36.243686,
        -2.964826
       ],
       [
        36.241182,
        -2.969506
       ],
       [
        36.239635,
        -2.974588
       ],
       [
        36.239104,
        -2.979875
       ],
       [
        36.239609,
        -2.985165
       ],
       [
        36.241131,
        -2.990255
       ],
       [
        36.243611,
        -2.994948
       ],
       [
        36.246954,
        -2.999065
       ],
       [
        36.251032,
        -3.002446
       ],
       [
        36.255688,
        -3.004963
       ],
       [
        36.260743,
        -3.006519
       ],
       [
        36.266002,
        -3.007053
       ],
       [
        36.269171,
        -3.006747
       ],
       [
        36.389199,
        -3.168118
       ],
       [
        36.390982,
        -3.17008
       ],
       [
        36.393112,
        -3.171655
       ],
       [
        36.394985,
        -3.172537
       ],
       [
        36.36,
        -3.26
       ],
       [
        36.38,
        -3.5
       ],
       [
        36.02,
        -3.5
       ],
       [
        35.992727,
        -3.318182
       ],
       [
        35.98,
        -3.28
       ],
       [
        35.97,
        -3.12
       ],
       [
        35.96,
        -2.9
       ],
       [
        36.02,
        -2.72
       ],
       [
        36.1,
        -2.62
       ],
       [
        36.15,
        -2.52
       ],
       [
        36.2,
        -2.42
       ],
       [
        36.263689,
        -2.400893
       ],
       [
        36.436115,
        -2.497064
       ],
       [
        36.650804,
        -2.616864
       ],
       [
        36.66,
        -2.622
       ],
       [
        36.66,
        -2.79
       ],
       [
        36.75,
        -2.79
       ],
       [
        36.75,
        -2.672264
       ],
       [
        36.865446,
        -2.73674
       ]
      ]
     ]
    ]
   }
  }
 ]
}
